[{"OBJECT_NAME":"STARLINK-36829","OBJECT_ID":"2026-037AB","EPOCH":"2026-03-05T16:00:00.999936","MEAN_MOTION":15.94628939,"ECCENTRICITY":0.0001653,"INCLINATION":42.9996,"RA_OF_ASC_NODE":223.2173,"ARG_OF_PERICENTER":282.6908,"MEAN_ANOMALY":94.9549,"EPHEMERIS_TYPE":0,"CLASSIFICATION_TYPE":"U","NORAD_CAT_ID":67957,"ELEMENT_SET_NO":999,"REV_AT_EPOCH":255,"BSTAR":-0.0038472,"MEAN_MOTION_DOT":-0.01515608,"MEAN_MOTION_DDOT":0.00066368},{"OBJECT_NAME":"STARLINK-36799","OBJECT_ID":"2026-037AC","EPOCH":"2026-03-05T16:00:00.999936","MEAN_MOTION":15.95000029,"ECCENTRICITY":0.0001682,"INCLINATION":42.9994,"RA_OF_ASC_NODE":223.1966,"ARG_OF_PERICENTER":283.9444,"MEAN_ANOMALY":101.9941,"EPHEMERIS_TYPE":0,"CLASSIFICATION_TYPE":"U","NORAD_CAT_ID":67958,"ELEMENT_SET_NO":999,"REV_AT_EPOCH":255,"BSTAR":-0.0037776,"MEAN_MOTION_DOT":-0.01518178,"MEAN_MOTION_DDOT":0.00066823},{"OBJECT_NAME":"STARLINK-36834","OBJECT_ID":"2026-037AD","EPOCH":"2026-03-05T16:00:00.999936","MEAN_MOTION":15.95230234,"ECCENTRICITY":0.0001532,"INCLINATION":42.9996,"RA_OF_ASC_NODE":223.1817,"ARG_OF_PERICENTER":278.997,"MEAN_ANOMALY":112.6411,"EPHEMERIS_TYPE":0,"CLASSIFICATION_TYPE":"U","NORAD_CAT_ID":67959,"ELEMENT_SET_NO":999,"REV_AT_EPOCH":255,"BSTAR":-0.003685,"MEAN_MOTION_DOT":-0.01499676,"MEAN_MOTION_DDOT":0.00065486},{"OBJECT_NAME":"STARLINK-36841","OBJECT_ID":"2026-037AE","EPOCH":"2026-03-05T16:00:00.999936","MEAN_MOTION":15.95125495,"ECCENTRICITY":0.0001448,"INCLINATION":42.9995,"RA_OF_ASC_NODE":223.1892,"ARG_OF_PERICENTER":280.2517,"MEAN_ANOMALY":108.3858,"EPHEMERIS_TYPE":0,"CLASSIFICATION_TYPE":"U","NORAD_CAT_ID":67960,"ELEMENT_SET_NO":999,"REV_AT_EPOCH":255,"BSTAR":-0.0037603,"MEAN_MOTION_DOT":-0.0152139,"MEAN_MOTION_DDOT":0.00067168},{"OBJECT_NAME":"STARLINK-36912","OBJECT_ID":"2026-038A","EPOCH":"2026-03-05T16:00:00.999936","MEAN_MOTION":16.00267875,"ECCENTRICITY":0.0001093,"INCLINATION":97.2764,"RA_OF_ASC_NODE":74.6278,"ARG_OF_PERICENTER":90.6568,"MEAN_ANOMALY":271.729,"EPHEMERIS_TYPE":0,"CLASSIFICATION_TYPE":"U","NORAD_CAT_ID":67961,"ELEMENT_SET_NO":999,"REV_AT_EPOCH":255,"BSTAR":-0.0030798,"MEAN_MOTION_DOT":-0.01572209,"MEAN_MOTION_DDOT":0.00076003},{"OBJECT_NAME":"STARLINK-36881","OBJECT_ID":"2026-038B","EPOCH":"2026-03-05T16:00:00.999936","MEAN_MOTION":16.00340839,"ECCENTRICITY":0.0001049,"INCLINATION":97.2761,"RA_OF_ASC_NODE":74.6284,"ARG_OF_PERICENTER":96.3769,"MEAN_ANOMALY":267.8586,"EPHEMERIS_TYPE":0,"CLASSIFICATION_TYPE":"U","NORAD_CAT_ID":67962,"ELEMENT_SET_NO":999,"REV_AT_EPOCH":255,"BSTAR":-0.003046,"MEAN_MOTION_DOT":-0.0156149,"MEAN_MOTION_DDOT":0.00075103},{"OBJECT_NAME":"STARLINK-36357","OBJECT_ID":"2026-038C","EPOCH":"2026-03-05T16:00:00.999936","MEAN_MOTION":16.00582175,"ECCENTRICITY":0.0001078,"INCLINATION":97.2759,"RA_OF_ASC_NODE":74.6307,"ARG_OF_PERICENTER":94.265,"MEAN_ANOMALY":274.8562,"EPHEMERIS_TYPE":0,"CLASSIFICATION_TYPE":"U","NORAD_CAT_ID":67963,"ELEMENT_SET_NO":999,"REV_AT_EPOCH":255,"BSTAR":-0.0030125,"MEAN_MOTION_DOT":-0.01565598,"MEAN_MOTION_DDOT":0.00075679},{"OBJECT_NAME":"STARLINK-36349","OBJECT_ID":"2026-038D","EPOCH":"2026-03-05T16:00:00.999936","MEAN_MOTION":16.00463865,"ECCENTRICITY":0.0001105,"INCLINATION":97.2757,"RA_OF_ASC_NODE":74.6294,"ARG_OF_PERICENTER":97.537,"MEAN_ANOMALY":269.1392,"EPHEMERIS_TYPE":0,"CLASSIFICATION_TYPE":"U","NORAD_CAT_ID":67964,"ELEMENT_SET_NO":999,"REV_AT_EPOCH":255,"BSTAR":-0.0030354,"MEAN_MOTION_DOT":-0.01566913,"MEAN_MOTION_DDOT":0.00075695},{"OBJECT_NAME":"STARLINK-36806","OBJECT_ID":"2026-038E","EPOCH":"2026-03-05T16:00:00.999936","MEAN_MOTION":16.00714096,"ECCENTRICITY":0.0001064,"INCLINATION":97.2754,"RA_OF_ASC_NODE":74.6317,"ARG_OF_PERICENTER":90.9942,"MEAN_ANOMALY":280.9582,"EPHEMERIS_TYPE":0,"CLASSIFICATION_TYPE":"U","NORAD_CAT_ID":67965,"ELEMENT_SET_NO":999,"REV_AT_EPOCH":255,"BSTAR":-0.0029703,"MEAN_MOTION_DOT":-0.01555422,"MEAN_MOTION_DDOT":0.00074879},{"OBJECT_NAME":"STARLINK-36820","OBJECT_ID":"2026-038F","EPOCH":"2026-03-05T16:00:00.999936","MEAN_MOTION":16.00831814,"ECCENTRICITY":0.0001041,"INCLINATION":97.2754,"RA_OF_ASC_NODE":74.6329,"ARG_OF_PERICENTER":92.9138,"MEAN_ANOMALY":281.4122,"EPHEMERIS_TYPE":0,"CLASSIFICATION_TYPE":"U","NORAD_CAT_ID":67966,"ELEMENT_SET_NO":999,"REV_AT_EPOCH":255,"BSTAR":-0.002954,"MEAN_MOTION_DOT":-0.01557261,"MEAN_MOTION_DDOT":0.00075145},{"OBJECT_NAME":"STARLINK-36819","OBJECT_ID":"2026-038G","EPOCH":"2026-03-05T16:00:00.999936","MEAN_MOTION":16.00954616,"ECCENTRICITY":0.0001118,"INCLINATION":97.2753,"RA_OF_ASC_NODE":74.6338,"ARG_OF_PERICENTER":87.9487,"MEAN_ANOMALY":288.9322,"EPHEMERIS_TYPE":0,"CLASSIFICATION_TYPE":"U","NORAD_CAT_ID":67967,"ELEMENT_SET_NO":999,"REV_AT_EPOCH":255,"BSTAR":-0.0029277,"MEAN_MOTION_DOT":-0.01554357,"MEAN_MOTION_DDOT":0.00074989},{"OBJECT_NAME":"STARLINK-36812","OBJECT_ID":"2026-038H","EPOCH":"2026-03-05T16:00:00.999936","MEAN_MOTION":16.01058008,"ECCENTRICITY":0.000108,"INCLINATION":97.275,"RA_OF_ASC_NODE":74.6345,"ARG_OF_PERICENTER":85.6168,"MEAN_ANOMALY":293.466,"EPHEMERIS_TYPE":0,"CLASSIFICATION_TYPE":"U","NORAD_CAT_ID":67968,"ELEMENT_SET_NO":999,"REV_AT_EPOCH":255,"BSTAR":-0.0029062,"MEAN_MOTION_DOT":-0.01552098,"MEAN_MOTION_DDOT":0.00074875},{"OBJECT_NAME":"STARLINK-36709","OBJECT_ID":"2026-038J","EPOCH":"2026-03-05T16:00:00.999936","MEAN_MOTION":16.01313975,"ECCENTRICITY":0.00011,"INCLINATION":97.2751,"RA_OF_ASC_NODE":74.6369,"ARG_OF_PERICENTER":82.0966,"MEAN_ANOMALY":302.2075,"EPHEMERIS_TYPE":0,"CLASSIFICATION_TYPE":"U","NORAD_CAT_ID":67969,"ELEMENT_SET_NO":999,"REV_AT_EPOCH":255,"BSTAR":-0.0028654,"MEAN_MOTION_DOT":-0.01552933,"MEAN_MOTION_DDOT":0.00075171},{"OBJECT_NAME":"STARLINK-36319","OBJECT_ID":"2026-038K","EPOCH":"2026-03-05T16:00:00.999936","MEAN_MOTION":16.01188425,"ECCENTRICITY":0.0001171,"INCLINATION":97.2749,"RA_OF_ASC_NODE":74.6355,"ARG_OF_PERICENTER":76.9512,"MEAN_ANOMALY":304.7214,"EPHEMERIS_TYPE":0,"CLASSIFICATION_TYPE":"U","NORAD_CAT_ID":67970,"ELEMENT_SET_NO":999,"REV_AT_EPOCH":252,"BSTAR":-0.0028972,"MEAN_MOTION_DOT":-0.01558834,"MEAN_MOTION_DDOT":0.00075595},{"OBJECT_NAME":"STARLINK-36710","OBJECT_ID":"2026-038L","EPOCH":"2026-03-05T16:00:00.999936","MEAN_MOTION":16.01468954,"ECCENTRICITY":0.0001038,"INCLINATION":97.2747,"RA_OF_ASC_NODE":74.6384,"ARG_OF_PERICENTER":89.9553,"MEAN_ANOMALY":297.5325,"EPHEMERIS_TYPE":0,"CLASSIFICATION_TYPE":"U","NORAD_CAT_ID":67971,"ELEMENT_SET_NO":999,"REV_AT_EPOCH":255,"BSTAR":-0.0028268,"MEAN_MOTION_DOT":-0.01545798,"MEAN_MOTION_DDOT":0.00074663},{"OBJECT_NAME":"STARLINK-36894","OBJECT_ID":"2026-038M","EPOCH":"2026-03-05T16:00:00.999936","MEAN_MOTION":16.01603717,"ECCENTRICITY":0.0001182,"INCLINATION":97.2744,"RA_OF_ASC_NODE":74.6394,"ARG_OF_PERICENTER":74.2276,"MEAN_ANOMALY":315.8835,"EPHEMERIS_TYPE":0,"CLASSIFICATION_TYPE":"U","NORAD_CAT_ID":67972,"ELEMENT_SET_NO":999,"REV_AT_EPOCH":255,"BSTAR":-0.0028149,"MEAN_MOTION_DOT":-0.01551228,"MEAN_MOTION_DDOT":0.00075269}]
